{
    "links": {
        "self": "http://www.neowsapp.com/rest/v1/neo/3631971?api_key=iIulBulltgU6a56xZRHN4H3l9WmuAYTsLGpBGhQ2"
    },
    "id": "3631971",
    "neo_reference_id": "3631971",
    "name": "(2013 EB34)",
    "designation": "2013 EB34",
    "nasa_jpl_url": "http://ssd.jpl.nasa.gov/sbdb.cgi?sstr=3631971",
    "absolute_magnitude_h": 24.7,
    "estimated_diameter": {
        "kilometers": {
            "estimated_diameter_min": 0.0305179233,
            "estimated_diameter_max": 0.0682401509
        },
        "meters": {
            "estimated_diameter_min": 30.5179232594,
            "estimated_diameter_max": 68.2401509401
        },
        "miles": {
            "estimated_diameter_min": 0.0189629525,
            "estimated_diameter_max": 0.0424024508
        },
        "feet": {
            "estimated_diameter_min": 100.1244233463,
            "estimated_diameter_max": 223.8850168104
        }
    },
    "is_potentially_hazardous_asteroid": false,
    "close_approach_data": [
        {
            "close_approach_date": "2013-03-24",
            "close_approach_date_full": "2013-Mar-24 08:59",
            "epoch_date_close_approach": 1364115540000,
            "relative_velocity": {
                "kilometers_per_second": "16.4276596197",
                "kilometers_per_hour": "59139.5746310356",
                "miles_per_hour": "36747.0318033787"
            },
            "miss_distance": {
                "astronomical": "0.0584616227",
                "lunar": "22.7415712303",
                "kilometers": "8745734.232663649",
                "miles": "5434347.2581463962"
            },
            "orbiting_body": "Earth"
        }
    ],
    "orbital_data": {
        "orbit_id": "6",
        "orbit_determination_date": "2017-04-06 08:46:30",
        "first_observation_date": "2013-03-11",
        "last_observation_date": "2013-03-15",
        "data_arc_in_days": 4,
        "observations_used": 20,
        "orbit_uncertainty": "8",
        "minimum_orbit_intersection": ".0149732",
        "jupiter_tisserand_invariant": "3.733",
        "epoch_osculation": "2456363.5",
        "eccentricity": ".6133403784183625",
        "semi_major_axis": "1.860571908798999",
        "inclination": "7.336539494603611",
        "ascending_node_longitude": "160.0503424403649",
        "orbital_period": "926.9752021022031",
        "perihelion_distance": ".7194080301816458",
        "perihelion_argument": "96.99738485672316",
        "aphelion_distance": "3.001735787416352",
        "perihelion_time": "2456422.425254838029",
        "mean_anomaly": "337.1157937196344",
        "mean_motion": ".3883599034619142",
        "equinox": "J2000",
        "orbit_class": {
            "orbit_class_type": "APO",
            "orbit_class_description": "Near-Earth asteroid orbits which cross the Earth’s orbit similar to that of 1862 Apollo",
            "orbit_class_range": "a (semi-major axis) > 1.0 AU; q (perihelion) < 1.017 AU"
        }
    },
    "is_sentry_object": false
}